satname,norad_id,inclination_deg,eccentricity,mean_motion_rev_per_day,perigee_km,apogee_km,l1,l2
STARLINK-1206,45204,53.0384,0.0003785,15.93048107,291.2333712816826,296.28399631431785,1 45204U 20012AC  25250.25001157  .00334838  54129-4  94143-3 0  9993,2 45204  53.0384  83.8311 0003785 104.3690 176.5250 15.93048107  6055
STARLINK-1208,45205,53.0393,0.0006156,15.88394779,302.6676567269906,310.89813009976115,1 45205U 20012AD  25250.25001157  .00334409  00000+0  11389-2 0  9992,2 45205  53.0393  84.6502 0006156  98.4767  44.0299 15.88394779  5942
STARLINK-1209,45206,53.0535,0.000149,15.06404854,546.1648064488363,548.2285558858239,1 45206U 20012AE  25249.89638610  .00010513  00000+0  72349-3 0  9992,2 45206  53.0535 111.7029 0001490  91.5982 268.5177 15.06404854306742
STARLINK-1210,45207,53.0295,0.0009259,15.43676691,428.96059840420094,441.57766387784704,1 45207U 20012AF  25250.27368452  .00103205  00000+0  22296-2 0  9997,2 45207  53.0295  86.7161 0009259 181.9776 178.1194 15.43676691308085
STARLINK-1231,45212,53.0535,0.000363,15.08243061,539.0567413120834,544.0804475736477,1 45212U 20012AL  25250.03640323  .00036302  00000+0  23244-2 0  9994,2 45212  53.0535 130.8199 0003630 115.2032 244.9334 15.08243061307395
STARLINK-1271,45217,53.0538,0.0001464,15.0640337,546.1873598761185,548.2150989096854,1 45217U 20012AR  25249.93876619  .00004939  00000+0  35021-3 0  9993,2 45217  53.0538 131.5086 0001464  94.4573 265.6584 15.06403370307427
STARLINK-1191,45222,53.0537,0.0001373,15.06405919,546.2425692488996,548.1442649814398,1 45222U 20012AW  25250.01433102  .00005297  00000+0  37419-3 0  9997,2 45222  53.0537 111.1695 0001373  82.9955 277.1190 15.06405919307711
STARLINK-1212,45223,53.0537,0.0001475,15.06402183,546.1833794403301,548.2263552912027,1 45223U 20012AX  25250.03284409  .00003377  00000+0  24550-3 0  9993,2 45223  53.0537 111.7424 0001475  88.7233 271.3925 15.06402183307716
STARLINK-1215,45225,53.0549,0.0001217,15.06395916,546.381258395545,548.0668912811607,1 45225U 20012AZ  25249.98851277 -.00001878  00000+0 -10726-3 0  9996,2 45225  53.0549 111.2885 0001217  97.4314 262.6813 15.06395916307666
STARLINK-1217,45226,53.0468,0.0006545,15.80425286,324.84710421026284,333.6270568816981,1 45226U 20012BA  25250.20364100  .00248123  00000+0  12489-2 0  9999,2 45226  53.0468  69.1222 0006545 122.1457 238.0200 15.80425286308233
STARLINK-1221,45227,53.0689,0.0005163,15.34684287,458.3269201397061,465.38989939983367,1 45227U 20012BB  25250.17128048  .00015788  00000+0  47303-3 0  9998,2 45227  53.0689  54.3956 0005163 138.2343 221.9053 15.34684287308465
STARLINK-1222,45228,53.054,0.0001846,15.06431895,545.8354047829453,548.3922073805506,1 45228U 20012BC  25250.02169444  .00008468  00000+0  58622-3 0  9991,2 45228  53.0540 111.1347 0001846  98.6219 261.4979 15.06431895307608
STARLINK-1226,45229,53.0537,0.0001607,15.06398368,546.1036554706852,548.3294641048005,1 45229U 20012BD  25249.98484329  .00006283  00000+0  44035-3 0  9993,2 45229  53.0537 111.3015 0001607  93.0757 267.0416 15.06398368307605
STARLINK-1227,45230,53.0537,0.0001287,15.06400283,546.3193983363944,548.1019828319513,1 45230U 20012BE  25249.91482052  .00014924  00000+0  10186-2 0  9999,2 45230  53.0537 111.6140 0001287  80.8763 279.2372 15.06400283307712
STARLINK-1238,45233,53.0385,0.000549,15.8762403,305.2750761998723,312.61749364671687,1 45233U 20012BH  25250.25001157  .00347599  00000+0  12283-2 0  9991,2 45233  53.0385  85.8205 0005490  99.6482 333.9975 15.87624030  6042
STARLINK-1246,45235,53.054,0.0001504,15.06395876,546.1826231090536,548.265771757242,1 45235U 20012BK  25250.12859792  .00002014  00000+0  15407-3 0  9997,2 45235  53.0540 150.6548 0001504  99.3570 260.7589 15.06395876307197
STARLINK-1247,45236,53.0416,0.0004061,15.87226432,307.34689696498754,312.7790529846625,1 45236U 20012BL  25250.25001157  .00399045  00000+0  14297-2 0  9994,2 45236  53.0416  65.6951 0004061 116.2608 354.0360 15.87226432  5992
STARLINK-1270,45237,53.0538,0.0001213,15.06382581,546.4248939229774,548.1049964348776,1 45237U 20012BM  25249.93323557  .00005339  00000+0  37723-3 0  9999,2 45237  53.0538 111.5341 0001213  91.7161 268.3967 15.06382581307702
STARLINK-1279,45360,53.0543,0.0001438,15.06389631,546.2474679196102,548.2392073047076,1 45360U 20019A   25250.22349581  .00001136  00000+0  95193-4 0  9999,2 45360  53.0543 240.2293 0001438  87.6883 272.4270 15.06389631302481
STARLINK-1301,45361,53.0543,0.0001207,15.0640162,546.3707039043902,548.0424818477113,1 45361U 20019B   25250.27786564  .00000770  00000+0  70553-4 0  9997,2 45361  53.0543 249.9868 0001207  78.5149 281.5976 15.06401620302368
STARLINK-1306,45362,53.0509,0.0007326,15.52324642,404.9677863234101,414.9136778164393,1 45362U 20019C   25250.27359322  .00114942  00000+0  18351-2 0  9999,2 45362  53.0509 258.1742 0007326  15.1517 344.9710 15.52324642302244
STARLINK-1262,45366,53.0548,0.0001249,15.06387936,546.3835519544791,548.113513260525,1 45366U 20019G   25250.24285474  .00000665  00000+0  63532-4 0  9995,2 45366  53.0548 270.1417 0001249  91.6918 268.4214 15.06387936302081
STARLINK-1273,45367,53.0526,0.0001271,15.06395473,546.3452190108355,548.1056461411963,1 45367U 20019H   25250.26497089  .00003558  00000+0  25765-3 0  9994,2 45367  53.0526 270.0486 0001271  88.2048 271.9086 15.06395473302085
STARLINK-1276,45368,53.0547,0.0001283,15.06392902,546.3447873603218,548.1218373824768,1 45368U 20019J   25250.23547617  .00001010  00000+0  86734-4 0  9990,2 45368  53.0547 270.1784 0001283  85.8739 274.2397 15.06392902302089
STARLINK-1277,45369,53.0538,0.0001296,15.06427552,546.2296020840467,548.0246305429946,1 45369U 20019K   25250.22818451  .00012601  00000+0  86270-3 0  9999,2 45369  53.0538 270.8470 0001296  92.6246 267.4892 15.06427552302075
STARLINK-1281,45370,53.0555,0.0001519,15.06384445,546.2072644955133,548.3111998708509,1 45370U 20019L   25250.22442840  .00000595  00000+0  58836-4 0  9993,2 45370  53.0555 270.2280 0001519  94.8050 265.3113 15.06384445302081
STARLINK-1300,45374,53.0545,0.0001339,15.06390485,546.3134121196317,548.1680282731004,1 45374U 20019Q   25250.24653983  .00000800  00000+0  72615-4 0  9991,2 45374  53.0545 270.1264 0001339  91.6597 268.4546 15.06390485302081
STARLINK-1302,45375,53.0544,0.0001206,15.06388277,546.4122861086726,548.0826888470529,1 45375U 20019R   25250.26128922  .00002091  00000+0  15928-3 0  9991,2 45375  53.0544 270.0635 0001206  81.5183 278.5942 15.06388277302082
STARLINK-1304,45376,53.0527,0.0001171,15.0640142,546.3962480397095,548.0181636527177,1 45376U 20019S   25250.21337929  .00002081  00000+0  15851-3 0  9990,2 45376  53.0527 270.2805 0001171  78.2997 281.8123 15.06401420302075
STARLINK-1305,45377,53.0525,0.0001485,15.0638985,546.2142475206201,548.2710852815426,1 45377U 20019T   25250.23916368  .00005226  00000+0  36959-3 0  9999,2 45377  53.0525 270.1602 0001485  81.3521 278.7636 15.06389850302081
STARLINK-1319,45379,53.0535,0.000138,15.06386993,546.2957192044232,548.2071264091173,1 45379U 20019V   25250.23178661 -.00004908  00000+0 -31093-3 0  9999,2 45379  53.0535 270.1964 0001380  86.7329 273.3818 15.06386993302082
STARLINK-1258,45381,53.0447,0.0008591,15.91550056,292.2092326893289,303.68007618798583,1 45381U 20019X   25250.25001157  .00423053  79396-4  12802-2 0  9998,2 45381  53.0447 203.8884 0008591  85.0823 234.5645 15.91550056  6000
STARLINK-1266,45383,53.054,0.0001477,15.06366594,546.2910553045513,548.3368335135301,1 45383U 20019Z   25250.30000568 -.00001933  00000+0 -11102-3 0  9996,2 45383  53.0540 249.8894 0001477  88.2791 271.8367 15.06366594302363
STARLINK-1267,45384,53.0543,0.0001404,15.06397443,546.2470747482585,548.1917148239154,1 45384U 20019AA  25250.28531707  .00000916  00000+0  80361-4 0  9990,2 45384  53.0543 250.6105 0001404  92.3563 267.7587 15.06397443302359
STARLINK-1272,45386,53.0543,0.0001339,15.06391526,546.3102220000274,548.1648372990676,1 45386U 20019AC  25250.29261055  .00000181  00000+0  31029-4 0  9990,2 45386  53.0543 249.9227 0001339  88.3669 271.7474 15.06391526302363
STARLINK-1274,45387,53.0421,0.0007258,15.23484069,490.35248655067153,500.33002758863495,1 45387U 20019AD  25250.23431437  .00050651  00000+0  20943-2 0  9996,2 45387  53.0421 243.0447 0007258  13.0650 347.0533 15.23484069302456
STARLINK-1280,45388,53.0531,0.0001397,15.06398356,546.2491246686404,548.1840684635217,1 45388U 20019AE  25250.21704655  .00000400  00000+0  45782-4 0  9997,2 45388  53.0531 270.2637 0001397  89.5589 270.5560 15.06398356302060
STARLINK-1283,45389,53.0547,0.00012,15.06392439,546.4036868034518,548.0657760189897,1 45389U 20019AF  25250.26312517  .00001607  00000+0  12679-3 0  9993,2 45389  53.0547 250.0525 0001200  85.8592 274.2534 15.06392439302367
STARLINK-1284,45390,53.0546,0.000123,15.06390093,546.3901000254555,548.0937432401779,1 45390U 20019AG  25250.30366790  .00002076  00000+0  15825-3 0  9999,2 45390  53.0546 249.8720 0001230  86.5028 273.6102 15.06390093302364
STARLINK-1292,45394,53.051,0.0003443,15.68049358,362.1615815256264,366.8045497028079,1 45394U 20019AL  25250.25001157  .00178152  00000+0  15455-2 0  9997,2 45394  53.0510 228.7077 0003443  80.1464  23.5212 15.68049358  5897
STARLINK-1297,45395,53.0543,0.0001245,15.0639392,546.3679841098283,548.0924005407178,1 45395U 20019AM  25250.20783698 -.00000678  00000+0 -26610-4 0  9996,2 45395  53.0543 250.3024 0001245  83.1259 276.9872 15.06393920301535
STARLINK-1307,45397,53.0536,0.0001322,15.06388555,546.331099720378,548.1621711535872,1 45397U 20019AP  25250.26682031  .00003149  00000+0  23025-3 0  9993,2 45397  53.0536 250.0350 0001322  85.9468 274.1672 15.06388555302184
STARLINK-1312,45398,53.0507,0.0011875,15.65525989,363.71098345679184,379.74190914175233,1 45398U 20019AQ  25250.25001157  .00205722  00000+0  19627-2 0  9990,2 45398  53.0507 227.8948 0011875  22.9822  58.1548 15.65525989  5986
